GLOBALSTAR M045         
1 25676U 99019A   24358.66640799 -.00000068  00000+0  22365-3 0  9998
2 25676  51.9975  85.5377 0000804 155.7496  10.5339 12.27053863172084
GLOBALSTAR M019         
1 25677U 99019B   24359.31222525  .00000012  00000+0  10659-2 0  9995
2 25677  51.9853 201.7584 0001358  33.8034 136.3526 12.13871258164099
GLOBALSTAR M044         
1 25678U 99019C   24359.32703646 -.00000046  00000+0  52966-3 0  9991
2 25678  51.9952 131.2004 0007408  71.7128 302.5697 11.90245798150483
GLOBALSTAR M042         
1 25679U 99019D   24359.30371785 -.00000060  00000+0  29859-3 0  9996
2 25679  51.9983 184.6521 0001844 314.8192 216.1074 12.22075499163943
GLOBALSTAR M025         
1 25770U 99031A   24358.60736382 -.00000055  00000+0  38950-3 0  9998
2 25770  51.9781 206.0155 0001179 152.2673 220.0984 11.22558192461997
GLOBALSTAR M049         
1 25771U 99031B   24358.00069722 -.00000034  00000+0  10678-2 0  9993
2 25771  51.9854 233.3301 0004572  76.4452 283.6853 11.12111514 97826
GLOBALSTAR M047         
1 25772U 99031C   24358.06372306 -.00000073  00000+0 -10146-3 0  9990
2 25772  51.9824 246.9848 0016134 324.5613  35.4120 11.31925896451161
GLOBALSTAR M052         
1 25773U 99031D   24358.36759705 -.00000027  00000+0  12922-2 0  9997
2 25773  51.9898 343.6459 0002334 243.2047 266.7413 11.15055894458896
